{"type": "FeatureCollection", "features": [ {"type": "Feature", "properties": {"norad_id": 66366, "name": "STARLINK-35845", "group": "last-30-days", "lat": -31.425723438488966, "lon": 162.09372773589604, "alt_km": 399.37986655540317, "timestamp": "2025-12-04T17:48:38.961918+00:00", "meta": {"OBJECT_NAME": "STARLINK-35845", "OBJECT_ID": "2025-254U", "EPOCH": "2025-12-04T08:00:01.999872", "MEAN_MOTION": 15.59337717, "ECCENTRICITY": 0.00012649, "INCLINATION": 53.1592, "RA_OF_ASC_NODE": 316.8105, "ARG_OF_PERICENTER": 66.1356, "MEAN_ANOMALY": 19.8375, "EPHEMERIS_TYPE": 0, "CLASSIFICATION_TYPE": "U", "NORAD_CAT_ID": 66366, "ELEMENT_SET_NO": 999, "REV_AT_EPOCH": 557, "BSTAR": -0.028430713, "MEAN_MOTION_DOT": -0.02002776, "MEAN_MOTION_DDOT": 0}, "tle": {"line1": "1 66366U 25254U   25338.33335648 -.02002776  00000+0 -28431-1 0  9995", "line2": "2 66366  53.1592 316.8105 0001264  66.1356  19.8375 15.59337717  5576"}}, "geometry": {"type": "Point", "coordinates": [162.09372773589604, -31.425723438488966]}}, {"type": "Feature", "properties": {"norad_id": 66367, "name": "STARLINK-35846", "group": "last-30-days", "lat": -34.10860069541303, "lon": 165.33624570337233, "alt_km": 399.5825707943368, "timestamp": "2025-12-04T17:48:38.961928+00:00", "meta": {"OBJECT_NAME": "STARLINK-35846", "OBJECT_ID": "2025-254V", "EPOCH": "2025-12-04T08:00:01.999872", "MEAN_MOTION": 15.59341129, "ECCENTRICITY": 0.00013286, "INCLINATION": 53.1593, "RA_OF_ASC_NODE": 316.8022, "ARG_OF_PERICENTER": 71.0006, "MEAN_ANOMALY": 18.8048, "EPHEMERIS_TYPE": 0, "CLASSIFICATION_TYPE": "U", "NORAD_CAT_ID": 66367, "ELEMENT_SET_NO": 999, "REV_AT_EPOCH": 552, "BSTAR": -0.02850264, "MEAN_MOTION_DOT": -0.02007486, "MEAN_MOTION_DDOT": 0}, "tle": {"line1": "1 66367U 25254V   25338.33335648 -.02007486  00000+0 -28503-1 0  9999", "line2": "2 66367  53.1593 316.8022 0001328  71.0006  18.8048 15.59341129  5527"}}, "geometry": {"type": "Point", "coordinates": [165.33624570337233, -34.10860069541303]}}, {"type": "Feature", "properties": {"norad_id": 66368, "name": "STARLINK-34861", "group": "last-30-days", "lat": -13.82055753020496, "lon": -56.05279676425991, "alt_km": 349.09885313563973, "timestamp": "2025-12-04T17:48:38.961938+00:00", "meta": {"OBJECT_NAME": "STARLINK-34861", "OBJECT_ID": "2025-254W", "EPOCH": "2025-12-04T05:41:56.857632", "MEAN_MOTION": 15.74490031, "ECCENTRICITY": 0.00031358, "INCLINATION": 53.1567, "RA_OF_ASC_NODE": 317.0842, "ARG_OF_PERICENTER": 150.4773, "MEAN_ANOMALY": 209.6425, "EPHEMERIS_TYPE": 0, "CLASSIFICATION_TYPE": "U", "NORAD_CAT_ID": 66368, "ELEMENT_SET_NO": 999, "REV_AT_EPOCH": 434, "BSTAR": 0.003559695, "MEAN_MOTION_DOT": 0.00564403, "MEAN_MOTION_DDOT": 0}, "tle": {"line1": "1 66368U 25254W   25338.23746363  .00564403  00000+0  35597-2 0  9994", "line2": "2 66368  53.1567 317.0842 0003135 150.4773 209.6425 15.74490031  4345"}}, "geometry": {"type": "Point", "coordinates": [-56.05279676425991, -13.82055753020496]}}, {"type": "Feature", "properties": {"norad_id": 66369, "name": "STARLINK-35795", "group": "last-30-days", "lat": -15.565181495702753, "lon": -57.47447104328475, "alt_km": 350.00446364807976, "timestamp": "2025-12-04T17:48:38.961948+00:00", "meta": {"OBJECT_NAME": "STARLINK-35795", "OBJECT_ID": "2025-254X", "EPOCH": "2025-12-04T02:39:36.815328", "MEAN_MOTION": 15.74349696, "ECCENTRICITY": 0.00030446, "INCLINATION": 53.1567, "RA_OF_ASC_NODE": 317.7168, "ARG_OF_PERICENTER": 147.1731, "MEAN_ANOMALY": 212.9479, "EPHEMERIS_TYPE": 0, "CLASSIFICATION_TYPE": "U", "NORAD_CAT_ID": 66369, "ELEMENT_SET_NO": 999, "REV_AT_EPOCH": 432, "BSTAR": 0.0021458163, "MEAN_MOTION_DOT": 0.00328479, "MEAN_MOTION_DDOT": 0}, "tle": {"line1": "1 66369U 25254X   25338.11084277  .00328479  00000+0  21458-2 0  9993", "line2": "2 66369  53.1567 317.7168 0003044 147.1731 212.9479 15.74349696  4324"}}, "geometry": {"type": "Point", "coordinates": [-57.47447104328475, -15.565181495702753]}}, {"type": "Feature", "properties": {"norad_id": 66370, "name": "STARLINK-35824", "group": "last-30-days", "lat": -12.225311658968849, "lon": -54.77682731936481, "alt_km": 346.7893347530817, "timestamp": "2025-12-04T17:48:38.961962+00:00", "meta": {"OBJECT_NAME": "STARLINK-35824", "OBJECT_ID": "2025-254Y", "EPOCH": "2025-12-04T02:38:39.081120", "MEAN_MOTION": 15.74459234, "ECCENTRICITY": 3.668e-05, "INCLINATION": 53.1568, "RA_OF_ASC_NODE": 317.7129, "ARG_OF_PERICENTER": 67.6917, "MEAN_ANOMALY": 292.4142, "EPHEMERIS_TYPE": 0, "CLASSIFICATION_TYPE": "U", "NORAD_CAT_ID": 66370, "ELEMENT_SET_NO": 999, "REV_AT_EPOCH": 432, "BSTAR": 0.0031685267, "MEAN_MOTION_DOT": 0.00497732, "MEAN_MOTION_DDOT": 0}, "tle": {"line1": "1 66370U 25254Y   25338.11017455  .00497732  00000+0  31685-2 0  9991", "line2": "2 66370  53.1568 317.7129 0000366  67.6917 292.4142 15.74459234  4320"}}, "geometry": {"type": "Point", "coordinates": [-54.77682731936481, -12.225311658968849]}}, {"type": "Feature", "properties": {"norad_id": 66371, "name": "STARLINK-35804", "group": "last-30-days", "lat": 3.8417196704685876, "lon": -42.57991895995987, "alt_km": 300.47006524166864, "timestamp": "2025-12-04T17:48:38.961974+00:00", "meta": {"OBJECT_NAME": "STARLINK-35804", "OBJECT_ID": "2025-254Z", "EPOCH": "2025-12-04T05:40:01.916256", "MEAN_MOTION": 15.78402207, "ECCENTRICITY": 0.0022163, "INCLINATION": 53.1567, "RA_OF_ASC_NODE": 317.0759, "ARG_OF_PERICENTER": 317.8316, "MEAN_ANOMALY": 42.1, "EPHEMERIS_TYPE": 0, "CLASSIFICATION_TYPE": "U", "NORAD_CAT_ID": 66371, "ELEMENT_SET_NO": 999, "REV_AT_EPOCH": 434, "BSTAR": 0.042320577, "MEAN_MOTION_DOT": 0.0928972, "MEAN_MOTION_DDOT": 0}, "tle": {"line1": "1 66371U 25254Z   25338.23613329  .09289720  00000+0  42321-1 0  9990", "line2": "2 66371  53.1567 317.0759 0022163 317.8316  42.1000 15.78402207  4341"}}, "geometry": {"type": "Point", "coordinates": [-42.57991895995987, 3.8417196704685876]}}, {"type": "Feature", "properties": {"norad_id": 66372, "name": "STARLINK-35821", "group": "last-30-days", "lat": -10.790927343088482, "lon": -53.64615090327847, "alt_km": 347.68379401522907, "timestamp": "2025-12-04T17:48:38.961984+00:00", "meta": {"OBJECT_NAME": "STARLINK-35821", "OBJECT_ID": "2025-254AA", "EPOCH": "2025-12-04T05:40:58.806336", "MEAN_MOTION": 15.74475506, "ECCENTRICITY": 0.00025221, "INCLINATION": 53.1567, "RA_OF_ASC_NODE": 317.0811, "ARG_OF_PERICENTER": 115.3607, "MEAN_ANOMALY": 244.7675, "EPHEMERIS_TYPE": 0, "CLASSIFICATION_TYPE": "U", "NORAD_CAT_ID": 66372, "ELEMENT_SET_NO": 999, "REV_AT_EPOCH": 434, "BSTAR": 0.0040077055, "MEAN_MOTION_DOT": 0.00641023, "MEAN_MOTION_DDOT": 0}, "tle": {"line1": "1 66372U 25254AA  25338.23679174  .00641023  00000+0  40077-2 0  9997", "line2": "2 66372  53.1567 317.0811 0002522 115.3607 244.7675 15.74475506  4348"}}, "geometry": {"type": "Point", "coordinates": [-53.64615090327847, -10.790927343088482]}}, {"type": "Feature", "properties": {"norad_id": 66373, "name": "STARLINK-35809", "group": "last-30-days", "lat": -7.927534441172732, "lon": -51.43219150117145, "alt_km": 346.86308421295143, "timestamp": "2025-12-04T17:48:38.961994+00:00", "meta": {"OBJECT_NAME": "STARLINK-35809", "OBJECT_ID": "2025-254AB", "EPOCH": "2025-12-04T02:37:11.293536", "MEAN_MOTION": 15.74358169, "ECCENTRICITY": 0.00010531, "INCLINATION": 53.1566, "RA_OF_ASC_NODE": 317.7054, "ARG_OF_PERICENTER": 75.9118, "MEAN_ANOMALY": 284.2019, "EPHEMERIS_TYPE": 0, "CLASSIFICATION_TYPE": "U", "NORAD_CAT_ID": 66373, "ELEMENT_SET_NO": 999, "REV_AT_EPOCH": 432, "BSTAR": 0.0026661189, "MEAN_MOTION_DOT": 0.00412582, "MEAN_MOTION_DDOT": 0}, "tle": {"line1": "1 66373U 25254AB  25338.10915849  .00412582  00000+0  26661-2 0  9995", "line2": "2 66373  53.1566 317.7054 0001053  75.9118 284.2019 15.74358169  4324"}}, "geometry": {"type": "Point", "coordinates": [-51.43219150117145, -7.927534441172732]}}, {"type": "Feature", "properties": {"norad_id": 66374, "name": "STARLINK-35831", "group": "last-30-days", "lat": -6.696810001381782, "lon": -50.49283126381785, "alt_km": 346.09703145489584, "timestamp": "2025-12-04T17:48:38.962004+00:00", "meta": {"OBJECT_NAME": "STARLINK-35831", "OBJECT_ID": "2025-254AC", "EPOCH": "2025-12-04T05:39:32.506560", "MEAN_MOTION": 15.74341834, "ECCENTRICITY": 0.00020841, "INCLINATION": 53.1569, "RA_OF_ASC_NODE": 317.0728, "ARG_OF_PERICENTER": 18.8309, "MEAN_ANOMALY": 341.2788, "EPHEMERIS_TYPE": 0, "CLASSIFICATION_TYPE": "U", "NORAD_CAT_ID": 66374, "ELEMENT_SET_NO": 999, "REV_AT_EPOCH": 434, "BSTAR": 0.0021379689, "MEAN_MOTION_DOT": 0.00327095, "MEAN_MOTION_DDOT": 0}, "tle": {"line1": "1 66374U 25254AC  25338.23579290  .00327095  00000+0  21380-2 0  9993", "line2": "2 66374  53.1569 317.0728 0002084  18.8309 341.2788 15.74341834  4342"}}, "geometry": {"type": "Point", "coordinates": [-50.49283126381785, -6.696810001381782]}}, {"type": "Feature", "properties": {"norad_id": 66375, "name": "STARLINK-35826", "group": "last-30-days", "lat": -5.052927368763426, "lon": -49.247471063295514, "alt_km": 346.39160575557526, "timestamp": "2025-12-04T17:48:38.962014+00:00", "meta": {"OBJECT_NAME": "STARLINK-35826", "OBJECT_ID": "2025-254AD", "EPOCH": "2025-12-04T05:39:03.248928", "MEAN_MOTION": 15.7437883, "ECCENTRICITY": 0.00012314, "INCLINATION": 53.1565, "RA_OF_ASC_NODE": 317.0707, "ARG_OF_PERICENTER": 53.2492, "MEAN_ANOMALY": 306.8641, "EPHEMERIS_TYPE": 0, "CLASSIFICATION_TYPE": "U", "NORAD_CAT_ID": 66375, "ELEMENT_SET_NO": 999, "REV_AT_EPOCH": 434, "BSTAR": 0.0026420388, "MEAN_MOTION_DOT": 0.00409034, "MEAN_MOTION_DDOT": 0}, "tle": {"line1": "1 66375U 25254AD  25338.23545427  .00409034  00000+0  26420-2 0  9993", "line2": "2 66375  53.1565 317.0707 0001231  53.2492 306.8641 15.74378830  4346"}}, "geometry": {"type": "Point", "coordinates": [-49.247471063295514, -5.052927368763426]}}]}